{
  "type": "FeatureCollection",
  "features": [
    {
      "type": "Feature",
      "properties": {
        "norad_id": 31758,
        "name": "FENGYUN 1C DEB",
        "group": "fengyun-1c-debris",
        "lat": -64.8148571223706,
        "lon": 160.2834712009253,
        "alt_km": 973.9177011952106,
        "timestamp": "2025-12-14T20:40:32.055748+00:00",
        "meta_object_name": "FENGYUN 1C DEB",
        "meta_object_id": "1999-025CFH",
        "meta_epoch": "2025-12-13T23:34:38.274816",
        "meta_mean_motion": 14.42064387,
        "meta_eccentricity": 0.03178767,
        "meta_inclination": 98.0612,
        "meta_ra_of_asc_node": 356.9918,
        "meta_arg_of_pericenter": 86.4834,
        "meta_mean_anomaly": 277.2652,
        "meta_ephemeris_type": 0,
        "meta_classification_type": "U",
        "meta_norad_cat_id": 31758,
        "meta_element_set_no": 999,
        "meta_rev_at_epoch": 94218,
        "meta_bstar": 0.0023825989,
        "meta_mean_motion_dot": 0.00014398,
        "meta_mean_motion_ddot": 0,
        "tle_line1": "1 31758U 99025CFH 25347.98238744  .00014398  00000+0  23826-2 0  9992",
        "tle_line2": "2 31758  98.0612 356.9918 0317876  86.4834 277.2652 14.42064387942182"
      },
      "geometry": {
        "type": "Point",
        "coordinates": [
          160.2834712009253,
          -64.8148571223706
        ]
      }
    },
    {
      "type": "Feature",
      "properties": {
        "norad_id": 31760,
        "name": "FENGYUN 1C DEB",
        "group": "fengyun-1c-debris",
        "lat": 26.603583076340215,
        "lon": -88.6521661070622,
        "alt_km": 760.2766226674721,
        "timestamp": "2025-12-14T20:40:32.055758+00:00",
        "meta_object_name": "FENGYUN 1C DEB",
        "meta_object_id": "1999-025CFK",
        "meta_epoch": "2025-12-13T23:48:43.195104",
        "meta_mean_motion": 14.30185055,
        "meta_eccentricity": 0.00528399,
        "meta_inclination": 99.2534,
        "meta_ra_of_asc_node": 85.7407,
        "meta_arg_of_pericenter": 193.8244,
        "meta_mean_anomaly": 166.1492,
        "meta_ephemeris_type": 0,
        "meta_classification_type": "U",
        "meta_norad_cat_id": 31760,
        "meta_element_set_no": 999,
        "meta_rev_at_epoch": 96150,
        "meta_bstar": 0.00092673901,
        "meta_mean_motion_dot": 2.387e-05,
        "meta_mean_motion_ddot": 0,
        "tle_line1": "1 31760U 99025CFK 25347.99216661  .00002387  00000+0  92674-3 0  9993",
        "tle_line2": "2 31760  99.2534  85.7407 0052839 193.8244 166.1492 14.30185055961502"
      },
      "geometry": {
        "type": "Point",
        "coordinates": [
          -88.6521661070622,
          26.603583076340215
        ]
      }
    },
    {
      "type": "Feature",
      "properties": {
        "norad_id": 31761,
        "name": "FENGYUN 1C DEB",
        "group": "fengyun-1c-debris",
        "lat": 25.09761516806056,
        "lon": 36.724133056665465,
        "alt_km": 942.1873613570042,
        "timestamp": "2025-12-14T20:40:32.055768+00:00",
        "meta_object_name": "FENGYUN 1C DEB",
        "meta_object_id": "1999-025CFL",
        "meta_epoch": "2025-12-13T21:38:54.080448",
        "meta_mean_motion": 14.03476064,
        "meta_eccentricity": 0.04720904,
        "meta_inclination": 98.6342,
        "meta_ra_of_asc_node": 211.7282,
        "meta_arg_of_pericenter": 260.1505,
        "meta_mean_anomaly": 94.6072,
        "meta_ephemeris_type": 0,
        "meta_classification_type": "U",
        "meta_norad_cat_id": 31761,
        "meta_element_set_no": 999,
        "meta_rev_at_epoch": 58127,
        "meta_bstar": 0.0022925992,
        "meta_mean_motion_dot": 9.753e-05,
        "meta_mean_motion_ddot": 0,
        "tle_line1": "1 31761U 99025CFL 25347.90201482  .00009753  00000+0  22926-2 0  9996",
        "tle_line2": "2 31761  98.6342 211.7282 0472090 260.1505  94.6072 14.03476064581272"
      },
      "geometry": {
        "type": "Point",
        "coordinates": [
          36.724133056665465,
          25.09761516806056
        ]
      }
    },
    {
      "type": "Feature",
      "properties": {
        "norad_id": 31763,
        "name": "FENGYUN 1C DEB",
        "group": "fengyun-1c-debris",
        "lat": 28.69435977384525,
        "lon": -78.3255066729554,
        "alt_km": 1024.3600850548019,
        "timestamp": "2025-12-14T20:40:32.055778+00:00",
        "meta_object_name": "FENGYUN 1C DEB",
        "meta_object_id": "1999-025CFN",
        "meta_epoch": "2025-12-14T05:54:13.141152",
        "meta_mean_motion": 13.50335156,
        "meta_eccentricity": 0.05468845,
        "meta_inclination": 98.5206,
        "meta_ra_of_asc_node": 96.4377,
        "meta_arg_of_pericenter": 65.6998,
        "meta_mean_anomaly": 328.4567,
        "meta_ephemeris_type": 0,
        "meta_classification_type": "U",
        "meta_norad_cat_id": 31763,
        "meta_element_set_no": 999,
        "meta_rev_at_epoch": 91026,
        "meta_bstar": 0.0008822656,
        "meta_mean_motion_dot": 1.412e-05,
        "meta_mean_motion_ddot": 0,
        "tle_line1": "1 31763U 99025CFN 25348.24598543  .00001412  00000+0  88227-3 0  9994",
        "tle_line2": "2 31763  98.5206  96.4377 0546884  65.6998 328.4567 13.50335156910261"
      },
      "geometry": {
        "type": "Point",
        "coordinates": [
          -78.3255066729554,
          28.69435977384525
        ]
      }
    },
    {
      "type": "Feature",
      "properties": {
        "norad_id": 31766,
        "name": "FENGYUN 1C DEB",
        "group": "fengyun-1c-debris",
        "lat": -9.309237063271041,
        "lon": 165.1705091419104,
        "alt_km": 884.6621241235507,
        "timestamp": "2025-12-14T20:40:32.055788+00:00",
        "meta_object_name": "FENGYUN 1C DEB",
        "meta_object_id": "1999-025CFR",
        "meta_epoch": "2025-12-13T18:08:16.641888",
        "meta_mean_motion": 14.05280907,
        "meta_eccentricity": 0.00734027,
        "meta_inclination": 98.8163,
        "meta_ra_of_asc_node": 345.5533,
        "meta_arg_of_pericenter": 288.2905,
        "meta_mean_anomaly": 71.0287,
        "meta_ephemeris_type": 0,
        "meta_classification_type": "U",
        "meta_norad_cat_id": 31766,
        "meta_element_set_no": 999,
        "meta_rev_at_epoch": 64100,
        "meta_bstar": 0.00014541779,
        "meta_mean_motion_dot": 1.97e-06,
        "meta_mean_motion_ddot": 0,
        "tle_line1": "1 31766U 99025CFR 25347.75574817  .00000197  00000+0  14542-3 0  9998",
        "tle_line2": "2 31766  98.8163 345.5533 0073402 288.2905  71.0287 14.05280907641000"
      },
      "geometry": {
        "type": "Point",
        "coordinates": [
          165.1705091419104,
          -9.309237063271041
        ]
      }
    },
    {
      "type": "Feature",
      "properties": {
        "norad_id": 31767,
        "name": "FENGYUN 1C DEB",
        "group": "fengyun-1c-debris",
        "lat": 18.65325741881377,
        "lon": -158.50043048024583,
        "alt_km": 880.3599025182448,
        "timestamp": "2025-12-14T20:40:32.055798+00:00",
        "meta_object_name": "FENGYUN 1C DEB",
        "meta_object_id": "1999-025CFS",
        "meta_epoch": "2025-12-14T08:00:34.303968",
        "meta_mean_motion": 14.0495389,
        "meta_eccentricity": 0.00418355,
        "meta_inclination": 98.8215,
        "meta_ra_of_asc_node": 17.9816,
        "meta_arg_of_pericenter": 65.6611,
        "meta_mean_anomaly": 307.0677,
        "meta_ephemeris_type": 0,
        "meta_classification_type": "U",
        "meta_norad_cat_id": 31767,
        "meta_element_set_no": 999,
        "meta_rev_at_epoch": 94848,
        "meta_bstar": 0.00010019007,
        "meta_mean_motion_dot": 1.2e-06,
        "meta_mean_motion_ddot": 0,
        "tle_line1": "1 31767U 99025CFS 25348.33373037  .00000120  00000+0  10019-3 0  9996",
        "tle_line2": "2 31767  98.8215  17.9816 0041835  65.6611 307.0677 14.04953890948483"
      },
      "geometry": {
        "type": "Point",
        "coordinates": [
          -158.50043048024583,
          18.65325741881377
        ]
      }
    },
    {
      "type": "Feature",
      "properties": {
        "norad_id": 31768,
        "name": "FENGYUN 1C DEB",
        "group": "fengyun-1c-debris",
        "lat": 79.50123525284829,
        "lon": -58.7660136836475,
        "alt_km": 643.254401202902,
        "timestamp": "2025-12-14T20:40:32.055807+00:00",
        "meta_object_name": "FENGYUN 1C DEB",
        "meta_object_id": "1999-025CFT",
        "meta_epoch": "2025-12-14T04:06:58.050144",
        "meta_mean_motion": 14.76222586,
        "meta_eccentricity": 0.00264628,
        "meta_inclination": 99.0428,
        "meta_ra_of_asc_node": 61.2157,
        "meta_arg_of_pericenter": 336.7171,
        "meta_mean_anomaly": 53.6655,
        "meta_ephemeris_type": 0,
        "meta_classification_type": "U",
        "meta_norad_cat_id": 31768,
        "meta_element_set_no": 999,
        "meta_rev_at_epoch": 96894,
        "meta_bstar": 0.0027525984,
        "meta_mean_motion_dot": 0.00019146,
        "meta_mean_motion_ddot": 0,
        "tle_line1": "1 31768U 99025CFT 25348.17150521  .00019146  00000+0  27526-2 0  9998",
        "tle_line2": "2 31768  99.0428  61.2157 0026462 336.7171  53.6655 14.76222586968948"
      },
      "geometry": {
        "type": "Point",
        "coordinates": [
          -58.7660136836475,
          79.50123525284829
        ]
      }
    }
  ]
}